start=new Date('2022-02-06T00:00:00.000Z').valueOf();
sats=[{"CLASSIFICATION_TYPE":"U","MEAN_ELEMENT_THEORY":"SGP4","BSTAR":"0.00004792600000","GP_ID":"195368491","EPOCH":"2022-02-05T11:42:09.714816","LAUNCH_DATE":"2020-10-18","MEAN_MOTION_DOT":"0.00000432","NORAD_CAT_ID":"46727","FILE":"3292709","INCLINATION":"53.0551","OBJECT_ID":"2020-073BK","OBJECT_TYPE":"PAYLOAD","DECAY_DATE":null,"ELEMENT_SET_NO":"999","PERIAPSIS":"546.109","MEAN_MOTION":"15.06397858","OBJECT_NAME":"STARLINK-1830","APOAPSIS":"548.331","ARG_OF_PERICENTER":"54.8266","SEMIMAJOR_AXIS":"6925.355","SITE":"AFETR","CENTER_NAME":"EARTH","EPHEMERIS_TYPE":"0","PERIOD":"95.592","TLE_LINE2":"2 46727  53.0551  79.8546 0001604  54.8266 305.2873 15.06397858 72423","ECCENTRICITY":"0.00016040","REF_FRAME":"TEME","MEAN_MOTION_DDOT":"0.0000000000000","RA_OF_ASC_NODE":"79.8546","MEAN_ANOMALY":"305.2873","TIME_SYSTEM":"UTC","TLE_LINE1":"1 46727U 20073BK  22036.48761244  .00000432  00000-0  47926-4 0  9998","RCS_SIZE":"LARGE","REV_AT_EPOCH":"7242","COUNTRY_CODE":"US"},{"OBJECT_ID":"2020-073BL","OBJECT_TYPE":"PAYLOAD","DECAY_DATE":null,"ELEMENT_SET_NO":"999","PERIAPSIS":"323.270","MEAN_MOTION":"15.81184355","CLASSIFICATION_TYPE":"U","MEAN_ELEMENT_THEORY":"SGP4","BSTAR":"0.00074569000000","GP_ID":"195375884","EPOCH":"2022-02-05T17:08:44.240352","LAUNCH_DATE":"2020-10-18","MEAN_MOTION_DOT":"0.00151392","NORAD_CAT_ID":"46728","FILE":"3292857","INCLINATION":"53.0474","REF_FRAME":"TEME","MEAN_MOTION_DDOT":"0.0000000000000","RA_OF_ASC_NODE":"43.6375","MEAN_ANOMALY":"319.1520","TIME_SYSTEM":"UTC","TLE_LINE1":"1 46728U 20073BL  22036.71440093  .00151392  00000-0  74569-3 0  9995","RCS_SIZE":"LARGE","REV_AT_EPOCH":"7341","COUNTRY_CODE":"US","OBJECT_NAME":"STARLINK-1831","APOAPSIS":"330.915","SEMIMAJOR_AXIS":"6705.227","ARG_OF_PERICENTER":"40.9929","SITE":"AFETR","CENTER_NAME":"EARTH","EPHEMERIS_TYPE":"0","PERIOD":"91.071","TLE_LINE2":"2 46728  53.0474  43.6375 0005701  40.9929 319.1520 15.81184355 73413","ECCENTRICITY":"0.00057010"},{"SITE":"AFETR","CENTER_NAME":"EARTH","PERIOD":"95.592","EPHEMERIS_TYPE":"0","TLE_LINE2":"2 46740  53.0534 189.4522 0001762  78.3556 281.7631 15.06401410 71552","ECCENTRICITY":"0.00017620","OBJECT_NAME":"STARLINK-1848","APOAPSIS":"548.429","ARG_OF_PERICENTER":"78.3556","SEMIMAJOR_AXIS":"6925.344","TLE_LINE1":"1 46740U 20074B   22036.58069700  .00003399  00000-0  24695-3 0  9995","RCS_SIZE":"LARGE","REV_AT_EPOCH":"7155","COUNTRY_CODE":"US","REF_FRAME":"TEME","MEAN_MOTION_DDOT":"0.0000000000000","RA_OF_ASC_NODE":"189.4522","MEAN_ANOMALY":"281.7631","TIME_SYSTEM":"UTC","LAUNCH_DATE":"2020-10-24","MEAN_MOTION_DOT":"0.00003399","NORAD_CAT_ID":"46740","FILE":"3292709","INCLINATION":"53.0534","CLASSIFICATION_TYPE":"U","MEAN_ELEMENT_THEORY":"SGP4","BSTAR":"0.00024695000000","GP_ID":"195367495","EPOCH":"2022-02-05T13:56:12.220800","ELEMENT_SET_NO":"999","PERIAPSIS":"545.989","MEAN_MOTION":"15.06401410","OBJECT_TYPE":"PAYLOAD","OBJECT_ID":"2020-074B","DECAY_DATE":null},{"OBJECT_NAME":"STARLINK-1865","APOAPSIS":"548.496","ARG_OF_PERICENTER":"78.0194","SEMIMAJOR_AXIS":"6925.320","CENTER_NAME":"EARTH","SITE":"AFETR","PERIOD":"95.592","EPHEMERIS_TYPE":"0","TLE_LINE2":"2 46741  53.0538 184.6674 0001893  78.0194 282.1008 15.06409426 71628","ECCENTRICITY":"0.00018930","REF_FRAME":"TEME","MEAN_MOTION_DDOT":"0.0000000000000","RA_OF_ASC_NODE":"184.6674","MEAN_ANOMALY":"282.1008","TIME_SYSTEM":"UTC","TLE_LINE1":"1 46741U 20074C   22036.53138090 -.00000056  00000-0  15178-4 0  9995","RCS_SIZE":"LARGE","REV_AT_EPOCH":"7162","COUNTRY_CODE":"US","CLASSIFICATION_TYPE":"U","MEAN_ELEMENT_THEORY":"SGP4","BSTAR":"0.00001517800000","GP_ID":"195368247","EPOCH":"2022-02-05T12:45:11.309760","LAUNCH_DATE":"2020-10-24","MEAN_MOTION_DOT":"-0.00000056","NORAD_CAT_ID":"46741","FILE":"3292709","INCLINATION":"53.0538","OBJECT_ID":"2020-074C","OBJECT_TYPE":"PAYLOAD","DECAY_DATE":null,"ELEMENT_SET_NO":"999","PERIAPSIS":"545.874","MEAN_MOTION":"15.06409426"},{"RA_OF_ASC_NODE":"183.6004","MEAN_ANOMALY":"290.6678","MEAN_MOTION_DDOT":"0.0000000000000","REF_FRAME":"TEME","TIME_SYSTEM":"UTC","RCS_SIZE":"LARGE","TLE_LINE1":"1 46742U 20074D   22036.76728793 -.00001603  00000-0 -88732-4 0  9992","COUNTRY_CODE":"US","REV_AT_EPOCH":"7167","OBJECT_NAME":"STARLINK-1872","APOAPSIS":"548.127","SEMIMAJOR_AXIS":"6925.344","ARG_OF_PERICENTER":"69.4453","EPHEMERIS_TYPE":"0","PERIOD":"95.592","SITE":"AFETR","CENTER_NAME":"EARTH","TLE_LINE2":"2 46742  53.0540 183.6004 0001325  69.4453 290.6678 15.06401480 71674","ECCENTRICITY":"0.00013250","OBJECT_TYPE":"PAYLOAD","OBJECT_ID":"2020-074D","DECAY_DATE":null,"ELEMENT_SET_NO":"999","MEAN_MOTION":"15.06401480","PERIAPSIS":"546.291","MEAN_ELEMENT_THEORY":"SGP4","BSTAR":"-0.00008873200000","CLASSIFICATION_TYPE":"U","GP_ID":"195376973","EPOCH":"2022-02-05T18:24:53.677152","MEAN_MOTION_DOT":"-0.00001603","LAUNCH_DATE":"2020-10-24","FILE":"3292907","INCLINATION":"53.0540","NORAD_CAT_ID":"46742"},{"REV_AT_EPOCH":"7162","COUNTRY_CODE":"US","TLE_LINE1":"1 46743U 20074E   22036.52402346  .00001238  00000-0  10197-3 0  9991","RCS_SIZE":"LARGE","TIME_SYSTEM":"UTC","REF_FRAME":"TEME","MEAN_MOTION_DDOT":"0.0000000000000","MEAN_ANOMALY":"215.3508","RA_OF_ASC_NODE":"184.6912","ECCENTRICITY":"0.00009570","TLE_LINE2":"2 46743  53.0529 184.6912 0000957 144.7544 215.3508 15.06396735 71626","SITE":"AFETR","CENTER_NAME":"EARTH","EPHEMERIS_TYPE":"0","PERIOD":"95.592","SEMIMAJOR_AXIS":"6925.359","ARG_OF_PERICENTER":"144.7544","APOAPSIS":"547.886","OBJECT_NAME":"STARLINK-1892","PERIAPSIS":"546.561","MEAN_MOTION":"15.06396735","ELEMENT_SET_NO":"999","DECAY_DATE":null,"OBJECT_TYPE":"PAYLOAD","OBJECT_ID":"2020-074E","NORAD_CAT_ID":"46743","FILE":"3292709","INCLINATION":"53.0529","LAUNCH_DATE":"2020-10-24","MEAN_MOTION_DOT":"0.00001238","EPOCH":"2022-02-05T12:34:35.626944","GP_ID":"195367745","CLASSIFICATION_TYPE":"U","BSTAR":"0.00010197000000","MEAN_ELEMENT_THEORY":"SGP4"},{"RCS_SIZE":"LARGE","TLE_LINE1":"1 46744U 20074F   22036.54244609 -.00001317  00000-0 -69511-4 0  9995","COUNTRY_CODE":"US","REV_AT_EPOCH":"7162","MEAN_ANOMALY":"300.4092","RA_OF_ASC_NODE":"184.6048","MEAN_MOTION_DDOT":"0.0000000000000","REF_FRAME":"TEME","TIME_SYSTEM":"UTC","EPHEMERIS_TYPE":"0","PERIOD":"95.592","CENTER_NAME":"EARTH","SITE":"AFETR","ECCENTRICITY":"0.00019810","TLE_LINE2":"2 46744  53.0542 184.6048 0001981  59.7092 300.4092 15.06397677 71623","OBJECT_NAME":"STARLINK-1894","ARG_OF_PERICENTER":"59.7092","SEMIMAJOR_AXIS":"6925.356","APOAPSIS":"548.593","ELEMENT_SET_NO":"999","MEAN_MOTION":"15.06397677","PERIAPSIS":"545.849","DECAY_DATE":null,"OBJECT_ID":"2020-074F","OBJECT_TYPE":"PAYLOAD","MEAN_MOTION_DOT":"-0.00001317","LAUNCH_DATE":"2020-10-24","FILE":"3292709","INCLINATION":"53.0542","NORAD_CAT_ID":"46744","BSTAR":"-0.00006951100000","MEAN_ELEMENT_THEORY":"SGP4","CLASSIFICATION_TYPE":"U","EPOCH":"2022-02-05T13:01:07.342176","GP_ID":"195367995"},{"PERIAPSIS":"431.676","MEAN_MOTION":"15.44247280","ELEMENT_SET_NO":"999","DECAY_DATE":null,"OBJECT_ID":"2020-074G","OBJECT_TYPE":"PAYLOAD","NORAD_CAT_ID":"46745","INCLINATION":"53.0551","FILE":"3292709","LAUNCH_DATE":"2020-10-24","MEAN_MOTION_DOT":"0.00085167","EPOCH":"2022-02-05T12:43:27.439680","GP_ID":"195368747","CLASSIFICATION_TYPE":"U","BSTAR":"0.00181280000000","MEAN_ELEMENT_THEORY":"SGP4","REV_AT_EPOCH":"7191","COUNTRY_CODE":"US","TLE_LINE1":"1 46745U 20074G   22036.53017870  .00085167  00000-0  18128-2 0  9992","RCS_SIZE":"LARGE","TIME_SYSTEM":"UTC","REF_FRAME":"TEME","MEAN_MOTION_DDOT":"0.0000000000000","MEAN_ANOMALY":"49.7379","RA_OF_ASC_NODE":"163.8536","ECCENTRICITY":"0.00028140","TLE_LINE2":"2 46745  53.0551 163.8536 0002814 310.3380  49.7379 15.44247280 71916","CENTER_NAME":"EARTH","SITE":"AFETR","PERIOD":"93.249","EPHEMERIS_TYPE":"0","ARG_OF_PERICENTER":"310.3380","SEMIMAJOR_AXIS":"6811.728","APOAPSIS":"435.510","OBJECT_NAME":"STARLINK-1898"},{"DECAY_DATE":null,"OBJECT_TYPE":"PAYLOAD","OBJECT_ID":"2020-074H","PERIAPSIS":"546.165","MEAN_MOTION":"15.06388117","ELEMENT_SET_NO":"999","EPOCH":"2022-02-05T19:44:31.560000","GP_ID":"195375122","CLASSIFICATION_TYPE":"U","BSTAR":"-0.00011344000000","MEAN_ELEMENT_THEORY":"SGP4","NORAD_CAT_ID":"46746","INCLINATION":"53.0546","FILE":"3292833","LAUNCH_DATE":"2020-10-24","MEAN_MOTION_DOT":"-0.00001970","TIME_SYSTEM":"UTC","MEAN_MOTION_DDOT":"0.0000000000000","REF_FRAME":"TEME","MEAN_ANOMALY":"278.9206","RA_OF_ASC_NODE":"183.3569","REV_AT_EPOCH":"7167","COUNTRY_CODE":"US","TLE_LINE1":"1 46746U 20074H   22036.82258750 -.00001970  00000-0 -11344-3 0  9995","RCS_SIZE":"LARGE","SEMIMAJOR_AXIS":"6925.385","ARG_OF_PERICENTER":"81.1961","APOAPSIS":"548.335","OBJECT_NAME":"STARLINK-1905","ECCENTRICITY":"0.00015670","TLE_LINE2":"2 46746  53.0546 183.3569 0001567  81.1961 278.9206 15.06388117 71677","CENTER_NAME":"EARTH","SITE":"AFETR","PERIOD":"95.593","EPHEMERIS_TYPE":"0"},{"TLE_LINE1":"1 46747U 20074J   22036.40606118  .00001295  00000-0  10579-3 0  9992","RCS_SIZE":"LARGE","REV_AT_EPOCH":"7160","COUNTRY_CODE":"US","REF_FRAME":"TEME","MEAN_MOTION_DDOT":"0.0000000000000","RA_OF_ASC_NODE":"185.2163","MEAN_ANOMALY":"280.4286","TIME_SYSTEM":"UTC","SITE":"AFETR","CENTER_NAME":"EARTH","PERIOD":"95.592","EPHEMERIS_TYPE":"0","TLE_LINE2":"2 46747  53.0558 185.2163 0002200  79.6951 280.4286 15.06406009 71608","ECCENTRICITY":"0.00022000","OBJECT_NAME":"STARLINK-1908","APOAPSIS":"548.719","ARG_OF_PERICENTER":"79.6951","SEMIMAJOR_AXIS":"6925.330","ELEMENT_SET_NO":"999","PERIAPSIS":"545.672","MEAN_MOTION":"15.06406009","OBJECT_TYPE":"PAYLOAD","OBJECT_ID":"2020-074J","DECAY_DATE":null,"LAUNCH_DATE":"2020-10-24","MEAN_MOTION_DOT":"0.00001295","NORAD_CAT_ID":"46747","INCLINATION":"53.0558","FILE":"3292709","CLASSIFICATION_TYPE":"U","MEAN_ELEMENT_THEORY":"SGP4","BSTAR":"0.00010579000000","GP_ID":"195367246","EPOCH":"2022-02-05T09:44:43.685952"}];
